CCSDS_OEM_VERS = 1.0
CREATION_DATE  = 2017-05-11T11:51:58
ORIGINATOR     = GMAT USER

META_START
OBJECT_NAME          = MOPSSat_alt_35785_km_RAAN_270_030
OBJECT_ID            = SatId
CENTER_NAME          = Earth
REF_FRAME            = EME2000
TIME_SYSTEM          = UTC
START_TIME           = 2017-01-01T00:00:00.000
USEABLE_START_TIME   = 2017-01-01T00:00:00.000
USEABLE_STOP_TIME    = 2017-01-02T00:00:00.000
STOP_TIME            = 2017-01-02T00:00:00.000
INTERPOLATION        = Lagrange
INTERPOLATION_DEGREE = 7 
META_STOP


                                                                                   

2017-01-01T01:50:00.000   1.951851001400802e+04  -3.737417320459946e+04  -9.306180592037525e-02   2.725415570503950e+00   1.423333112439628e+00  -2.866534957270917e-05
2017-01-01T01:50:10.000   1.954575897837145e+04  -3.735992993742188e+04  -9.334867813334152e-02   2.724376954376481e+00   1.425320141121238e+00  -2.870909017917679e-05
2017-01-01T01:50:20.000   1.957299754930227e+04  -3.734566680376093e+04  -9.363598770042252e-02   2.723336889472979e+00   1.427306411811778e+00  -2.875282044494859e-05
2017-01-01T01:50:30.000   1.960022571210099e+04  -3.733138381131450e+04  -9.392373451567715e-02   2.722295376354741e+00   1.429291923439333e+00  -2.879654031674630e-05
2017-01-01T01:50:40.000   1.962744345200724e+04  -3.731708096782598e+04  -9.421191847192953e-02   2.721252415586389e+00   1.431276674927545e+00  -2.884024974118039e-05
2017-01-01T01:50:50.000   1.965465075482579e+04  -3.730275828075555e+04  -9.450053946739320e-02   2.720208007711893e+00   1.433260665241269e+00  -2.888394866575794e-05
2017-01-01T01:51:00.000   1.968184760630200e+04  -3.728841575760789e+04  -9.478959739906756e-02   2.719162153278471e+00   1.435243893341026e+00  -2.892763703787653e-05
2017-01-01T01:51:10.000   1.970903399226347e+04  -3.727405340585838e+04  -9.507909216422598e-02   2.718114852831201e+00   1.437226358193336e+00  -2.897131480505381e-05
2017-01-01T01:51:20.000   1.973620989826656e+04  -3.725967123313632e+04  -9.536902365672702e-02   2.717066106926382e+00   1.439208058744939e+00  -2.901498191435218e-05
2017-01-01T01:51:30.000   1.976337530985929e+04  -3.724526924708956e+04  -9.565939176973577e-02   2.716015916121674e+00   1.441188993941966e+00  -2.905863831280950e-05
2017-01-01T01:51:40.000   1.979053021258070e+04  -3.723084745538350e+04  -9.595019639574823e-02   2.714964280976010e+00   1.443169162729897e+00  -2.910228394743463e-05
2017-01-01T01:51:50.000   1.981767459170126e+04  -3.721640586584234e+04  -9.624143742373695e-02   2.713911202059906e+00   1.445148564034620e+00  -2.914591876480218e-05
2017-01-01T01:52:00.000   1.984480843257314e+04  -3.720194448625980e+04  -9.653311474297245e-02   2.712856679941656e+00   1.447127196787990e+00  -2.918954271160327e-05
2017-01-01T01:52:10.000   1.987193172049207e+04  -3.718746332447337e+04  -9.682522824152516e-02   2.711800715192743e+00   1.449105059917739e+00  -2.923315573442823e-05
2017-01-01T01:52:20.000   1.989904444130947e+04  -3.717296238803761e+04  -9.711777781285441e-02   2.710743308364024e+00   1.451082152392127e+00  -2.927675778073637e-05
2017-01-01T01:52:30.000   1.992614658082026e+04  -3.715844168455063e+04  -9.741076334922377e-02   2.709684460009526e+00   1.453058473175286e+00  -2.932034879788618e-05
2017-01-01T01:52:40.000   1.995323812490139e+04  -3.714390122158064e+04  -9.770418474318140e-02   2.708624170681100e+00   1.455034021237339e+00  -2.936392873335288e-05
2017-01-01T01:52:50.000   1.998031905915960e+04  -3.712934100685156e+04  -9.799804188382034e-02   2.707562440941952e+00   1.457008795528698e+00  -2.940749753417710e-05
2017-01-01T01:53:00.000   2.000738936919339e+04  -3.711476104810592e+04  -9.829233465953804e-02   2.706499271356642e+00   1.458982794999178e+00  -2.945105514737097e-05
2017-01-01T01:53:10.000   2.003444904059247e+04  -3.710016135310387e+04  -9.858706295806013e-02   2.705434662491016e+00   1.460956018597951e+00  -2.949460151992288e-05
2017-01-01T01:53:20.000   2.006149805867892e+04  -3.708554192976609e+04  -9.888222666354912e-02   2.704368614922631e+00   1.462928465254673e+00  -2.953813659836585e-05
2017-01-01T01:53:30.000   2.008853640885640e+04  -3.707090278598230e+04  -9.917782566047605e-02   2.703301129226778e+00   1.464900133904952e+00  -2.958166032935456e-05
2017-01-01T01:53:40.000   2.011556407646978e+04  -3.705624392968774e+04  -9.947385983207331e-02   2.702232205982073e+00   1.466871023480106e+00  -2.962517265943425e-05
2017-01-01T01:53:50.000   2.014258104742531e+04  -3.704156536852691e+04  -9.977032906712628e-02   2.701161845745935e+00   1.468841132952390e+00  -2.966867353605341e-05
2017-01-01T01:54:00.000   2.016958730756884e+04  -3.702686711019059e+04  -1.000672332531683e-01   2.700090049079147e+00   1.470810461289658e+00  -2.971216290654853e-05
2017-01-01T01:54:10.000   2.019658284284642e+04  -3.701214916232894e+04  -1.003645722782333e-01   2.699016816539540e+00   1.472779007467065e+00  -2.975564071840785e-05
2017-01-01T01:54:20.000   2.022356763887203e+04  -3.699741153278434e+04  -1.006623460261565e-01   2.697942148698957e+00   1.474746770435557e+00  -2.979910691856186e-05
2017-01-01T01:54:30.000   2.025054168128458e+04  -3.698265422939965e+04  -1.009605543804450e-01   2.696866046129280e+00   1.476713749147891e+00  -2.984256145397148e-05
2017-01-01T01:54:40.000   2.027750495566805e+04  -3.696787726006088e+04  -1.012591972234149e-01   2.695788509405535e+00   1.478679942552828e+00  -2.988600427149500e-05
2017-01-01T01:54:50.000   2.030445744757403e+04  -3.695308063268691e+04  -1.015582744363978e-01   2.694709539105145e+00   1.480645349596757e+00  -2.992943531793710e-05
2017-01-01T01:55:00.000   2.033139914254778e+04  -3.693826435521351e+04  -1.018577859000648e-01   2.693629135806764e+00   1.482609969225614e+00  -2.997285454007817e-05
2017-01-01T01:55:10.000   2.035833002613816e+04  -3.692342843558816e+04  -1.021577314945303e-01   2.692547300089907e+00   1.484573800385594e+00  -3.001626188469463e-05
2017-01-01T01:55:20.000   2.038525008399424e+04  -3.690857288171774e+04  -1.024581111004113e-01   2.691464032531118e+00   1.486536842030196e+00  -3.005965729870287e-05
2017-01-01T01:55:30.000   2.041215930180064e+04  -3.689369770150290e+04  -1.027589245981294e-01   2.690379333706495e+00   1.488499093115519e+00  -3.010304072906669e-05
2017-01-01T01:55:40.000   2.043905766527768e+04  -3.687880290283840e+04  -1.030601718679071e-01   2.689293204191701e+00   1.490460552600259e+00  -3.014641212279393e-05
2017-01-01T01:55:50.000   2.046594516024509e+04  -3.686388849357671e+04  -1.033618527905032e-01   2.688205644559323e+00   1.492421219450364e+00  -3.018977142704821e-05
2017-01-01T01:56:00.000   2.049282177252608e+04  -3.684895448158196e+04  -1.036639672461223e-01   2.687116655382791e+00   1.494381092632037e+00  -3.023311858898597e-05
2017-01-01T01:56:10.000   2.051968748793784e+04  -3.683400087473537e+04  -1.039665151143026e-01   2.686026237236786e+00   1.496340171111038e+00  -3.027645355574351e-05
2017-01-01T01:56:20.000   2.054654229226400e+04  -3.681902768094900e+04  -1.042694962736420e-01   2.684934390698234e+00   1.498298453850685e+00  -3.031977627438778e-05
2017-01-01T01:56:30.000   2.057338617123411e+04  -3.680403490817908e+04  -1.045729106015233e-01   2.683841116347285e+00   1.500255939810347e+00  -3.036308669188766e-05
2017-01-01T01:56:40.000   2.060021911060213e+04  -3.678902256438141e+04  -1.048767579750194e-01   2.682746414764061e+00   1.502212627951178e+00  -3.040638475523979e-05
2017-01-01T01:56:50.000   2.062704109579405e+04  -3.677399065771103e+04  -1.051810382668473e-01   2.681650286543205e+00   1.504168517210413e+00  -3.044967041090155e-05
2017-01-01T01:57:00.000   2.065385211233526e+04  -3.675893919628066e+04  -1.054857513502618e-01   2.680552732276280e+00   1.506123606532537e+00  -3.049294360547937e-05
2017-01-01T01:57:10.000   2.068065214569146e+04  -3.674386818825032e+04  -1.057908970972403e-01   2.679453752558296e+00   1.508077894857683e+00  -3.053620428547183e-05
2017-01-01T01:57:20.000   2.070744118188533e+04  -3.672877764148077e+04  -1.060964753854968e-01   2.678353347962444e+00   1.510031381166599e+00  -3.057945239826718e-05
2017-01-01T01:57:30.000   2.073421920688136e+04  -3.671366756387906e+04  -1.064024860914902e-01   2.677251519065287e+00   1.511984064435787e+00  -3.062268789114752e-05
2017-01-01T01:57:40.000   2.076098620672546e+04  -3.669853796332054e+04  -1.067089290919996e-01   2.676148266441080e+00   1.513935943647691e+00  -3.066591071151605e-05
2017-01-01T01:57:50.000   2.078774216719674e+04  -3.668338884784213e+04  -1.070158042602159e-01   2.675043590675855e+00   1.515887017765297e+00  -3.070912080632766e-05
2017-01-01T01:58:00.000   2.081448707406651e+04  -3.666822022549952e+04  -1.073231114686269e-01   2.673937492357020e+00   1.517837285751023e+00  -3.075231812251525e-05
2017-01-01T01:58:10.000   2.084122091309766e+04  -3.665303210436625e+04  -1.076308505890411e-01   2.672829972073278e+00   1.519786746566673e+00  -3.079550260698525e-05
2017-01-01T01:58:20.000   2.086794366978904e+04  -3.663782449268219e+04  -1.079390214895714e-01   2.671721030425465e+00   1.521735399154797e+00  -3.083867420621663e-05
2017-01-01T01:58:30.000   2.089465532972036e+04  -3.662259739865440e+04  -1.082476240386752e-01   2.670610668012031e+00   1.523683242463843e+00  -3.088183286680592e-05
2017-01-01T01:58:40.000   2.092135587841617e+04  -3.660735083053538e+04  -1.085566581035701e-01   2.669498885434717e+00   1.525630275438233e+00  -3.092497853525211e-05
2017-01-01T01:58:50.000   2.094804530194842e+04  -3.659208479627892e+04  -1.088661235572049e-01   2.668385683273513e+00   1.527576497062309e+00  -3.096811115891643e-05
2017-01-01T01:59:00.000   2.097472358633377e+04  -3.657679930388401e+04  -1.091760202712927e-01   2.667271062111680e+00   1.529521906316383e+00  -3.101123068506262e-05
